COSMOS 2426 (717)       
1 29671U 06062B   19160.70136486 -.00000023  00000-0  10000-3 0  9991
2 29671  65.1279 280.5462 0018512 163.0614  77.9433  2.13103054 96931
COSMOS 2433 (720)       
1 32275U 07052A   19160.79743065 -.00000064  00000-0  10000-3 0  9996
2 32275  65.8481  41.3860 0001881 289.9012   1.3139  2.13104456 90444
COSMOS 2432 (719)       
1 32276U 07052B   19160.91656132 -.00000064  00000-0  10000-3 0  9999
2 32276  65.8578  41.4645 0011563 338.7784 354.9562  2.13103985 90444
COSMOS 2434 (721)       
1 32393U 07065A   19160.66926081 -.00000023  00000-0  00000+0 0  9998
2 32393  64.7259 279.2452 0004788 113.1726 327.1698  2.13103084 89155
COSMOS 2436 (723)       
1 32395U 07065C   19160.59877315 -.00000023  00000-0  10000-3 0  9992
2 32395  64.7354 279.3034 0015380   3.1579  75.3531  2.13104494 89080
COSMOS 2456 (730)       
1 36111U 09070A   19160.70442880  .00000100  00000-0  00000-0 0  9999
2 36111  64.2006 158.8812 0006589 302.7370 337.6236  2.13102998 73819
COSMOS 2457 (733)       
1 36112U 09070B   19160.44899488  .00000099  00000-0  00000+0 0  9997
2 36112  64.1834 158.7922 0005187 197.3857  12.1314  2.13101630 73814
COSMOS 2459 (731)       
1 36400U 10007A   19160.45488216 -.00000062  00000-0  10000-3 0  9999
2 36400  65.7545  40.4132 0027400 353.1854 251.2870  2.13102329 72167
COSMOS 2461 (735)       
1 36401U 10007B   19160.01993918 -.00000060  00000-0  10000-3 0  9990
2 36401  65.7468  40.4015 0008249  59.1830 122.1492  2.13102309 72152
COSMOS 2460 (732)       
1 36402U 10007C   19160.58175792 -.00000063  00000-0  10000-3 0  9998
2 36402  65.7377  40.3459 0001658  28.5669 263.6683  2.13101590 72165
COSMOS 2464 (736)       
1 37139U 10041C   19160.73359737 -.00000025  00000-0  00000+0 0  9997
2 37139  64.3264 278.8711 0024567  14.2720 341.7630  2.13100747 68232
COSMOS 2474 (742)       
1 37829U 11055A   19160.91022869  .00000102  00000-0  00000+0 0  9997
2 37829  64.5226 159.7416 0011104 253.4781  41.2463  2.13101958 59819
COSMOS 2476 (744)       
1 37867U 11064A   19160.66625601  .00000101  00000-0  00000+0 0  9993
2 37867  64.5032 159.8029 0021116 244.4536 269.2439  2.13101996 59164
COSMOS 2477 (745)       
1 37868U 11064B   19160.46618909  .00000099  00000-0  00000+0 0  9991
2 37868  64.5112 159.8623 0018768 246.1015 292.7977  2.13101841 59116
COSMOS 2475 (743)       
1 37869U 11064C   19160.70197106  .00000101  00000-0  00000+0 0  9994
2 37869  64.5183 159.8517 0023285 266.2427  50.6003  2.13102090 59126
COSMOS 2485 (747)       
1 39155U 13019A   19160.77709054  .00000102  00000-0  00000-0 0  9996
2 39155  64.6713 159.9871 0021423 239.9813  43.4693  2.13102004 47631
COSMOS 2492 (754)       
1 39620U 14012A   19160.75553138 -.00000064  00000-0  10000-3 0  9997
2 39620  65.6260  40.1762 0014639 332.5122 329.4785  2.13103445 40586
COSMOS 2500 (755)       
1 40001U 14032A   19160.95962725 -.00000065  00000-0  00000+0 0  9998
2 40001  65.5670  40.1112 0004508 204.9018 115.1156  2.13102868 38806
COSMOS 2501 (702K)      
1 40315U 14075A   19160.93491199 -.00000028  00000-0  00000+0 0  9992
2 40315  64.0471 279.9476 0016061 204.3189 254.7757  2.13098755 35210
COSMOS 2514 (751)       
1 41330U 16008A   19160.45983954 -.00000063  00000-0  00000-0 0  9990
2 41330  65.3716  40.0925 0007973 217.7059 260.5560  2.13103271 25964
COSMOS 2516 (753)       
1 41554U 16032A   19160.77199083 -.00000026  00000-0  00000+0 0  9990
2 41554  64.2717 279.9178 0012268 212.5263  35.8003  2.13101812 23576
COSMOS 2522 (752)       
1 42939U 17055A   19160.67811016 -.00000024  00000-0  00000-0 0  9999
2 42939  64.5003 279.9904 0006750 238.5800 164.2169  2.13101922 13331
COSMOS 2527 (756)       
1 43508U 18053A   19161.16909321  .00000104  00000-0  00000+0 0  9990
2 43508  64.8360 159.7431 0009362 245.2152 205.4374  2.13102726  7635
COSMOS 2529 (757)       
1 43687U 18086A   19160.67896514 -.00000024  00000-0  00000-0 0  9991
2 43687  64.7137 280.0111 0008698 268.7590  90.4009  2.13102029  4634
COSMOS 2534 (758)       
1 44299U 19030A   19160.60426975 -.00000023  00000-0  00000+0 0  9992
2 44299  64.7852 279.8012 0006564  49.8638  29.5006  2.12569483   282
